[{"CCSDS_OMM_VERS":"2.0","COMMENT":"GENERATED VIA SPACE-TRACK.ORG API","CREATION_DATE":"2021-10-02T22:46:12","ORIGINATOR":"18 SPCS","OBJECT_NAME":"RESURS O1 DEB","OBJECT_ID":"1994-074GA","CENTER_NAME":"EARTH","REF_FRAME":"TEME","TIME_SYSTEM":"UTC","MEAN_ELEMENT_THEORY":"SGP4","EPOCH":"2021-10-02T02:03:33.349824","MEAN_MOTION":"14.83311052","ECCENTRICITY":"0.00022020","INCLINATION":"97.9100","RA_OF_ASC_NODE":"324.2877","ARG_OF_PERICENTER":"84.1313","MEAN_ANOMALY":"276.0151","EPHEMERIS_TYPE":"0","CLASSIFICATION_TYPE":"U","NORAD_CAT_ID":"49246","ELEMENT_SET_NO":"999","REV_AT_EPOCH":"456","BSTAR":"0.00137460000000","MEAN_MOTION_DOT":"0.00011216","MEAN_MOTION_DDOT":"0.0000000000000","SEMIMAJOR_AXIS":"6997.029","PERIOD":"97.080","APOAPSIS":"620.435","PERIAPSIS":"617.353","OBJECT_TYPE":"DEBRIS","RCS_SIZE":null,"COUNTRY_CODE":"CIS","LAUNCH_DATE":"1994-11-04","SITE":"TTMTR","DECAY_DATE":null,"FILE":"3141186","GP_ID":"186027541","TLE_LINE0":"0 RESURS O1 DEB","TLE_LINE1":"1 49246U 94074GA  21275.08580266  .00011216  00000-0  13746-2 0  9995","TLE_LINE2":"2 49246  97.9100 324.2877 0002202  84.1313 276.0151 14.83311052  4567"},{"CCSDS_OMM_VERS":"2.0","COMMENT":"GENERATED VIA SPACE-TRACK.ORG API","CREATION_DATE":"2021-10-01T18:05:37","ORIGINATOR":"18 SPCS","OBJECT_NAME":"RESURS O1 DEB","OBJECT_ID":"1994-074FZ","CENTER_NAME":"EARTH","REF_FRAME":"TEME","TIME_SYSTEM":"UTC","MEAN_ELEMENT_THEORY":"SGP4","EPOCH":"2021-10-01T09:00:50.037696","MEAN_MOTION":"14.81825601","ECCENTRICITY":"0.00060030","INCLINATION":"97.9257","RA_OF_ASC_NODE":"323.3604","ARG_OF_PERICENTER":"101.3288","MEAN_ANOMALY":"258.8599","EPHEMERIS_TYPE":"0","CLASSIFICATION_TYPE":"U","NORAD_CAT_ID":"49245","ELEMENT_SET_NO":"999","REV_AT_EPOCH":"445","BSTAR":"0.00076898000000","MEAN_MOTION_DOT":"0.00006028","MEAN_MOTION_DDOT":"0.0000000000000","SEMIMAJOR_AXIS":"7001.705","PERIOD":"97.177","APOAPSIS":"627.773","PERIAPSIS":"619.366","OBJECT_TYPE":"DEBRIS","RCS_SIZE":null,"COUNTRY_CODE":"CIS","LAUNCH_DATE":"1994-11-04","SITE":"TTMTR","DECAY_DATE":null,"FILE":"3138865","GP_ID":"185927604","TLE_LINE0":"0 RESURS O1 DEB","TLE_LINE1":"1 49245U 94074FZ  21274.37557914  .00006028  00000-0  76898-3 0  9992","TLE_LINE2":"2 49245  97.9257 323.3604 0006003 101.3288 258.8599 14.81825601  4453"},{"CCSDS_OMM_VERS":"2.0","COMMENT":"GENERATED VIA SPACE-TRACK.ORG API","CREATION_DATE":"2021-10-03T04:23:41","ORIGINATOR":"18 SPCS","OBJECT_NAME":"RESURS O1 DEB","OBJECT_ID":"1994-074FY","CENTER_NAME":"EARTH","REF_FRAME":"TEME","TIME_SYSTEM":"UTC","MEAN_ELEMENT_THEORY":"SGP4","EPOCH":"2021-10-02T14:11:05.461152","MEAN_MOTION":"14.81832943","ECCENTRICITY":"0.00057920","INCLINATION":"97.9311","RA_OF_ASC_NODE":"324.5731","ARG_OF_PERICENTER":"101.3404","MEAN_ANOMALY":"258.8460","EPHEMERIS_TYPE":"0","CLASSIFICATION_TYPE":"U","NORAD_CAT_ID":"49244","ELEMENT_SET_NO":"999","REV_AT_EPOCH":"464","BSTAR":"0.00059969000000","MEAN_MOTION_DOT":"0.00004689","MEAN_MOTION_DDOT":"0.0000000000000","SEMIMAJOR_AXIS":"7001.681","PERIOD":"97.177","APOAPSIS":"627.602","PERIAPSIS":"619.491","OBJECT_TYPE":"DEBRIS","RCS_SIZE":null,"COUNTRY_CODE":"CIS","LAUNCH_DATE":"1994-11-04","SITE":"TTMTR","DECAY_DATE":null,"FILE":"3141323","GP_ID":"186053715","TLE_LINE0":"0 RESURS O1 DEB","TLE_LINE1":"1 49244U 94074FY  21275.59103543  .00004689  00000-0  59969-3 0  9992","TLE_LINE2":"2 49244  97.9311 324.5731 0005792 101.3404 258.8460 14.81832943  4646"},{"CCSDS_OMM_VERS":"2.0","COMMENT":"GENERATED VIA SPACE-TRACK.ORG API","CREATION_DATE":"2021-10-03T04:23:41","ORIGINATOR":"18 SPCS","OBJECT_NAME":"RESURS O1 DEB","OBJECT_ID":"1994-074FX","CENTER_NAME":"EARTH","REF_FRAME":"TEME","TIME_SYSTEM":"UTC","MEAN_ELEMENT_THEORY":"SGP4","EPOCH":"2021-10-02T08:29:22.814592","MEAN_MOTION":"14.82398552","ECCENTRICITY":"0.00017970","INCLINATION":"97.9079","RA_OF_ASC_NODE":"323.8649","ARG_OF_PERICENTER":"178.2022","MEAN_ANOMALY":"181.9198","EPHEMERIS_TYPE":"0","CLASSIFICATION_TYPE":"U","NORAD_CAT_ID":"49243","ELEMENT_SET_NO":"999","REV_AT_EPOCH":"763","BSTAR":"0.00088742000000","MEAN_MOTION_DOT":"0.00007060","MEAN_MOTION_DDOT":"0.0000000000000","SEMIMAJOR_AXIS":"6999.900","PERIOD":"97.140","APOAPSIS":"623.023","PERIAPSIS":"620.507","OBJECT_TYPE":"DEBRIS","RCS_SIZE":"SMALL","COUNTRY_CODE":"CIS","LAUNCH_DATE":"1994-11-04","SITE":"TTMTR","DECAY_DATE":null,"FILE":"3141323","GP_ID":"186054151","TLE_LINE0":"0 RESURS O1 DEB","TLE_LINE1":"1 49243U 94074FX  21275.35373628  .00007060  00000-0  88742-3 0  9995","TLE_LINE2":"2 49243  97.9079 323.8649 0001797 178.2022 181.9198 14.82398552  7636"},{"CCSDS_OMM_VERS":"2.0","COMMENT":"GENERATED VIA SPACE-TRACK.ORG API","CREATION_DATE":"2021-10-03T06:36:12","ORIGINATOR":"18 SPCS","OBJECT_NAME":"RESURS O1 DEB","OBJECT_ID":"1994-074FW","CENTER_NAME":"EARTH","REF_FRAME":"TEME","TIME_SYSTEM":"UTC","MEAN_ELEMENT_THEORY":"SGP4","EPOCH":"2021-10-02T20:47:44.655648","MEAN_MOTION":"14.81878103","ECCENTRICITY":"0.00023520","INCLINATION":"97.9161","RA_OF_ASC_NODE":"324.1840","ARG_OF_PERICENTER":"60.4770","MEAN_ANOMALY":"299.6677","EPHEMERIS_TYPE":"0","CLASSIFICATION_TYPE":"U","NORAD_CAT_ID":"49242","ELEMENT_SET_NO":"999","REV_AT_EPOCH":"770","BSTAR":"0.00063104000000","MEAN_MOTION_DOT":"0.00004941","MEAN_MOTION_DDOT":"0.0000000000000","SEMIMAJOR_AXIS":"7001.539","PERIOD":"97.174","APOAPSIS":"625.051","PERIAPSIS":"621.757","OBJECT_TYPE":"DEBRIS","RCS_SIZE":"SMALL","COUNTRY_CODE":"CIS","LAUNCH_DATE":"1994-11-04","SITE":"TTMTR","DECAY_DATE":null,"FILE":"3141609","GP_ID":"186060631","TLE_LINE0":"0 RESURS O1 DEB","TLE_LINE1":"1 49242U 94074FW  21275.86648907  .00004941  00000-0  63104-3 0  9995","TLE_LINE2":"2 49242  97.9161 324.1840 0002352  60.4770 299.6677 14.81878103  7705"},{"CCSDS_OMM_VERS":"2.0","COMMENT":"GENERATED VIA SPACE-TRACK.ORG API","CREATION_DATE":"2021-10-03T04:23:41","ORIGINATOR":"18 SPCS","OBJECT_NAME":"RESURS O1 DEB","OBJECT_ID":"1994-074FV","CENTER_NAME":"EARTH","REF_FRAME":"TEME","TIME_SYSTEM":"UTC","MEAN_ELEMENT_THEORY":"SGP4","EPOCH":"2021-10-02T09:30:35.320032","MEAN_MOTION":"14.82981495","ECCENTRICITY":"0.00077280","INCLINATION":"97.9032","RA_OF_ASC_NODE":"323.9704","ARG_OF_PERICENTER":"90.4955","MEAN_ANOMALY":"269.7144","EPHEMERIS_TYPE":"0","CLASSIFICATION_TYPE":"U","NORAD_CAT_ID":"49241","ELEMENT_SET_NO":"999","REV_AT_EPOCH":"761","BSTAR":"0.00095549000000","MEAN_MOTION_DOT":"0.00007718","MEAN_MOTION_DDOT":"0.0000000000000","SEMIMAJOR_AXIS":"6998.066","PERIOD":"97.102","APOAPSIS":"625.339","PERIAPSIS":"614.523","OBJECT_TYPE":"DEBRIS","RCS_SIZE":"SMALL","COUNTRY_CODE":"CIS","LAUNCH_DATE":"1994-11-04","SITE":"TTMTR","DECAY_DATE":null,"FILE":"3141323","GP_ID":"186053498","TLE_LINE0":"0 RESURS O1 DEB","TLE_LINE1":"1 49241U 94074FV  21275.39624213  .00007718  00000-0  95549-3 0  9999","TLE_LINE2":"2 49241  97.9032 323.9704 0007728  90.4955 269.7144 14.82981495  7614"},{"CCSDS_OMM_VERS":"2.0","COMMENT":"GENERATED VIA SPACE-TRACK.ORG API","CREATION_DATE":"2021-10-02T19:42:11","ORIGINATOR":"18 SPCS","OBJECT_NAME":"RESURS O1 DEB","OBJECT_ID":"1994-074FU","CENTER_NAME":"EARTH","REF_FRAME":"TEME","TIME_SYSTEM":"UTC","MEAN_ELEMENT_THEORY":"SGP4","EPOCH":"2021-10-02T02:31:20.377344","MEAN_MOTION":"14.82165742","ECCENTRICITY":"0.00043230","INCLINATION":"97.9060","RA_OF_ASC_NODE":"323.5874","ARG_OF_PERICENTER":"121.7245","MEAN_ANOMALY":"238.4390","EPHEMERIS_TYPE":"0","CLASSIFICATION_TYPE":"U","NORAD_CAT_ID":"49240","ELEMENT_SET_NO":"999","REV_AT_EPOCH":"759","BSTAR":"0.00144880000000","MEAN_MOTION_DOT":"0.00011505","MEAN_MOTION_DDOT":"0.0000000000000","SEMIMAJOR_AXIS":"7000.633","PERIOD":"97.155","APOAPSIS":"625.525","PERIAPSIS":"619.472","OBJECT_TYPE":"DEBRIS","RCS_SIZE":"SMALL","COUNTRY_CODE":"CIS","LAUNCH_DATE":"1994-11-04","SITE":"TTMTR","DECAY_DATE":null,"FILE":"3140732","GP_ID":"186016293","TLE_LINE0":"0 RESURS O1 DEB","TLE_LINE1":"1 49240U 94074FU  21275.10509696  .00011505  00000-0  14488-2 0  9995","TLE_LINE2":"2 49240  97.9060 323.5874 0004323 121.7245 238.4390 14.82165742  7598"},{"CCSDS_OMM_VERS":"2.0","COMMENT":"GENERATED VIA SPACE-TRACK.ORG API","CREATION_DATE":"2021-10-03T14:46:13","ORIGINATOR":"18 SPCS","OBJECT_NAME":"RESURS O1 DEB","OBJECT_ID":"1994-074FT","CENTER_NAME":"EARTH","REF_FRAME":"TEME","TIME_SYSTEM":"UTC","MEAN_ELEMENT_THEORY":"SGP4","EPOCH":"2021-10-03T09:57:07.284096","MEAN_MOTION":"14.81701240","ECCENTRICITY":"0.00039340","INCLINATION":"97.9043","RA_OF_ASC_NODE":"324.5841","ARG_OF_PERICENTER":"246.6883","MEAN_ANOMALY":"113.3916","EPHEMERIS_TYPE":"0","CLASSIFICATION_TYPE":"U","NORAD_CAT_ID":"49239","ELEMENT_SET_NO":"999","REV_AT_EPOCH":"778","BSTAR":"0.00069147000000","MEAN_MOTION_DOT":"0.00005397","MEAN_MOTION_DDOT":"0.0000000000000","SEMIMAJOR_AXIS":"7002.096","PERIOD":"97.186","APOAPSIS":"626.716","PERIAPSIS":"621.207","OBJECT_TYPE":"DEBRIS","RCS_SIZE":"SMALL","COUNTRY_CODE":"CIS","LAUNCH_DATE":"1994-11-04","SITE":"TTMTR","DECAY_DATE":null,"FILE":"3142334","GP_ID":"186075622","TLE_LINE0":"0 RESURS O1 DEB","TLE_LINE1":"1 49239U 94074FT  21276.41466764  .00005397  00000-0  69147-3 0  9991","TLE_LINE2":"2 49239  97.9043 324.5841 0003934 246.6883 113.3916 14.81701240  7788"}]